      2.10          N: GNSS NAV DATA                        RINEX VERSION / TYPE
fic2rin                                 07/31/2019 00:18:44 PGM / RUN BY / DATE
                                                            END OF HEADER
27 19  7 30 11 59 44.0-8.999835699797e-06-1.114131009672e-11 0.000000000000e+00
    0.000000000000e+00 5.406250000000e+01 4.630192866118e-09 1.421524348469e+00
    2.922490239143e-06 7.146893651225e-03 1.136213541031e-07 5.153647045135e+03
    2.159840000000e+05-5.960464477539e-08 1.121271175388e+00 1.490116119385e-07
    9.784240597008e-01 3.872812500000e+02 5.170781586322e-01-8.547498894781e-09
    4.643050544549e-11 1.000000000000e+00 2.064000000000e+03 0.000000000000e+00
    2.400000000000e+00 0.000000000000e+00 1.396983861923e-09 0.000000000000e+00
    2.113500000000e+05 4.000000000000e+00
 9 19  7 30 13 59 44.0 3.593298606575e-04-8.640199666843e-12 0.000000000000e+00
    2.600000000000e+01 1.453125000000e+01 4.996636701403e-09 2.879635318427e+00
    8.512288331985e-07 1.232182257809e-03 5.573034286499e-06 5.153615890503e+03
    2.231840000000e+05-7.078051567078e-08-2.032492264661e+00 2.793967723846e-08
    9.521999584475e-01 2.677187500000e+02 1.712905347646e+00-8.113195089998e-09
    3.096557555480e-10 1.000000000000e+00 2.064000000000e+03 0.000000000000e+00
    2.400000000000e+00 0.000000000000e+00 1.396983861923e-09 2.600000000000e+01
    2.160000000000e+05 4.000000000000e+00
27 19  7 30 13 59 44.0-9.079929441214e-06-1.114131009672e-11 0.000000000000e+00
    1.000000000000e+00 5.250000000000e+01 4.524474176796e-09 2.471695307482e+00
    2.689659595490e-06 7.146916352212e-03 1.788139343262e-07 5.153647350311e+03
    2.231840000000e+05-1.564621925354e-07 1.121209372951e+00-1.490116119385e-07
    9.784258810338e-01 3.863125000000e+02 5.171052811334e-01-8.302845846856e-09
    1.975082270104e-10 1.000000000000e+00 2.064000000000e+03 0.000000000000e+00
    2.400000000000e+00 0.000000000000e+00 1.396983861923e-09 1.000000000000e+00
    2.160000000000e+05 4.000000000000e+00
28 19  7 30 13 59 44.0 7.656598463655e-04-7.958078640513e-13 0.000000000000e+00
    4.200000000000e+01 1.576562500000e+02 3.719797801652e-09-2.978770572105e+00
    7.970258593559e-06 1.900102163199e-02 1.025944948196e-05 5.153715034485e+03
    2.231840000000e+05 3.036111593246e-07 1.672077928529e-01 1.434236764908e-07
    9.817262783486e-01 1.860312500000e+02-1.462179244195e+00-7.388522047314e-09
    2.200091642648e-10 1.000000000000e+00 2.064000000000e+03 0.000000000000e+00
    2.400000000000e+00 0.000000000000e+00-1.117587089539e-08 4.200000000000e+01
    2.160000000000e+05 4.000000000000e+00
 2 19  7 30 14  0  0.0-2.717860043049e-04-8.526512829121e-12 0.000000000000e+00
    5.200000000000e+01-1.263750000000e+02 4.880917595524e-09 5.745782327354e-01
   -6.666406989098e-06 1.895120565314e-02 4.475936293602e-06 5.153756195068e+03
    2.232000000000e+05-2.365559339523e-07 2.107113253793e+00-7.264316082001e-08
    9.554533551302e-01 2.988750000000e+02-1.726293761784e+00-8.688933357522e-09
   -4.764484174176e-10 1.000000000000e+00 2.064000000000e+03 0.000000000000e+00
    2.400000000000e+00 0.000000000000e+00-2.048909664154e-08 5.200000000000e+01
    2.160000000000e+05 4.000000000000e+00
 1 19  7 30 14  0  0.0-8.196663111448e-05-1.102762325900e-11 0.000000000000e+00
    8.000000000000e+01-1.514062500000e+02 4.261606084428e-09 3.065135042492e-01
   -7.728114724159e-06 9.083749260753e-03 5.656853318214e-06 5.153654125214e+03
    2.232000000000e+05 0.000000000000e+00 2.177181317095e+00 1.322478055954e-07
    9.764069487543e-01 2.752500000000e+02 7.439790538967e-01-8.221413883460e-09
   -4.625192657839e-10 1.000000000000e+00 2.064000000000e+03 0.000000000000e+00
    2.400000000000e+00 0.000000000000e+00 5.587935447693e-09 8.000000000000e+01
    2.160000000000e+05 4.000000000000e+00
 5 19  7 30 14  0  0.0-2.733431756496e-07-2.273736754432e-13 0.000000000000e+00
    6.000000000000e+01-5.871875000000e+01 4.403754862638e-09-3.032531607537e+00
   -3.017485141754e-06 5.817907745950e-03 1.178495585918e-05 5.153742034912e+03
    2.232000000000e+05 5.029141902924e-08-3.091949283436e+00-5.401670932770e-08
    9.507132942819e-01 1.474062500000e+02 7.450028668741e-01-7.726393263864e-09
    3.978737158944e-10 1.000000000000e+00 2.064000000000e+03 0.000000000000e+00
    2.400000000000e+00 0.000000000000e+00-1.117587089539e-08 6.000000000000e+01
    2.160000000000e+05 4.000000000000e+00
 6 19  7 30 14  0  0.0-9.561888873577e-06-1.159605744760e-11 0.000000000000e+00
    4.500000000000e+01-1.543125000000e+02 4.133029300117e-09 5.559420915282e-01
   -8.031725883484e-06 1.400627894327e-03 5.152076482773e-06 5.153633483887e+03
    2.232000000000e+05 3.911554813385e-08 2.168900833574e+00-2.421438694000e-08
    9.760355635932e-01 2.909062500000e+02-1.079971299562e+00-8.061050060806e-09
   -4.160887603384e-10 1.000000000000e+00 2.064000000000e+03 0.000000000000e+00
    2.400000000000e+00 0.000000000000e+00 4.190951585770e-09 4.500000000000e+01
    2.160000000000e+05 4.000000000000e+00
 3 19  7 30 14  0  0.0 1.779287122190e-04-2.501110429876e-12 0.000000000000e+00
    6.500000000000e+01-4.906250000000e+01 4.188031591183e-09-7.197148137537e-01
   -2.661719918251e-06 2.401315723546e-03 1.218542456627e-05 5.153744375229e+03
    2.232000000000e+05 8.009374141693e-08-3.064230815753e+00 9.685754776001e-08
    9.638309091175e-01 1.453125000000e+02 6.660084534225e-01-7.701392222470e-09
    4.093027633887e-10 1.000000000000e+00 2.064000000000e+03 0.000000000000e+00
    2.400000000000e+00 0.000000000000e+00 1.862645149231e-09 6.500000000000e+01
    2.160000000000e+05 4.000000000000e+00
 7 19  7 30 14  0  0.0-7.491372525692e-05-7.844391802792e-12 0.000000000000e+00
    7.500000000000e+01-5.406250000000e+00 4.764484174176e-09-3.101494349917e-01
   -1.303851604462e-07 1.308499602601e-02 9.100884199142e-06 5.153734397888e+03
    2.232000000000e+05 8.940696716309e-08-9.563785103752e-01 1.452863216400e-07
    9.548152185607e-01 2.025937500000e+02-2.444132741516e+00-8.183198005901e-09
   -5.632377468272e-10 1.000000000000e+00 2.064000000000e+03 0.000000000000e+00
    2.400000000000e+00 0.000000000000e+00-1.117587089539e-08 7.500000000000e+01
    2.160000000000e+05 4.000000000000e+00
 4 19  7 30 14  0  0.0 3.946479409933e-05 3.910827217624e-11 0.000000000000e+00
    1.490000000000e+02 7.721875000000e+01 4.831272670470e-09 2.608490898688e+00
    3.799796104431e-06 1.462937064935e-02 4.451721906662e-07 5.153674860001e+03
    2.232000000000e+05-9.685754776001e-08 1.018707630245e+00-2.849847078323e-07
    9.587579173728e-01 3.713437500000e+02 6.721970942900e-01-8.317489313958e-09
    2.442958901901e-10 1.000000000000e+00 2.064000000000e+03 0.000000000000e+00
    3.400000000000e+00 6.300000000000e+01-5.587935447693e-09 1.490000000000e+02
    2.160000000000e+05 4.000000000000e+00
16 19  7 30 14  0  0.0-6.063934415579e-05-3.296918293927e-12 0.000000000000e+00
    2.600000000000e+01 1.524687500000e+02 3.780871774200e-09-2.861662317985e+00
    7.646158337593e-06 1.073283317965e-02 9.659677743912e-06 5.153620061874e+03
    2.232000000000e+05-3.352761268616e-08 1.632840271266e-01-1.601874828339e-07
    9.827657006619e-01 2.078125000000e+02 5.830839324948e-01-7.521384724435e-09
    2.000083311498e-10 1.000000000000e+00 2.064000000000e+03 0.000000000000e+00
    2.400000000000e+00 0.000000000000e+00-1.071020960808e-08 2.600000000000e+01
    2.160000000000e+05 4.000000000000e+00
13 19  7 30 14  0  0.0-5.214335396886e-05 1.818989403546e-12 0.000000000000e+00
    1.900000000000e+01 1.403125000000e+01 4.753412284416e-09 1.563958420940e+00
    6.984919309616e-07 3.577066469006e-03 5.083158612251e-06 5.153655712128e+03
    2.232000000000e+05-6.891787052155e-08-1.894230692026e+00-6.519258022308e-08
    9.674997774606e-01 2.843750000000e+02 1.235796992888e+00-8.134981711784e-09
    2.285809498855e-10 1.000000000000e+00 2.064000000000e+03 0.000000000000e+00
    2.400000000000e+00 0.000000000000e+00-1.117587089539e-08 1.900000000000e+01
    2.160000000000e+05 4.000000000000e+00
24 19  7 30 14  0  0.0-6.949948146939e-05-5.684341886081e-13 0.000000000000e+00
    4.100000000000e+01-2.506250000000e+01 5.179144303577e-09 5.933098673832e-01
   -1.339241862297e-06 8.444422739558e-03 8.389353752136e-06 5.153703073502e+03
    2.232000000000e+05-8.009374141693e-08-1.023414542832e+00 1.695007085800e-07
    9.379413903951e-01 2.081875000000e+02 6.031790974934e-01-8.333204254263e-09
   -6.057395171966e-10 1.000000000000e+00 2.064000000000e+03 0.000000000000e+00
    2.400000000000e+00 0.000000000000e+00 2.793967723846e-09 4.100000000000e+01
    2.160000000000e+05 4.000000000000e+00
23 19  7 30 14  0  0.0-1.747184433043e-04 1.818989403546e-12 0.000000000000e+00
    3.000000000000e+01 1.584375000000e+01 5.331293498345e-09 1.136974778809e+00
    9.108334779739e-07 1.325378695037e-02 5.802139639854e-06 5.153772586823e+03
    2.232000000000e+05-1.974403858185e-07-2.038230303353e+00 2.235174179077e-08
    9.430127188020e-01 2.629375000000e+02-2.236562231326e+00-8.469638508726e-09
    1.367914121971e-10 1.000000000000e+00 2.064000000000e+03 0.000000000000e+00
    2.400000000000e+00 0.000000000000e+00-2.002343535423e-08 3.000000000000e+01
    2.160000000000e+05 4.000000000000e+00
21 19  7 30 14  0  0.0-1.452947035432e-04 6.821210263297e-12 0.000000000000e+00
    2.900000000000e+01-1.334375000000e+02 4.866274128422e-09-1.535620688331e+00
   -6.625428795815e-06 2.450552349910e-02 5.358830094337e-06 5.153692974091e+03
    2.232000000000e+05-2.849847078323e-07 2.111182878304e+00 6.277114152908e-07
    9.492461893311e-01 2.671250000000e+02-1.425247625662e+00-8.426422422888e-09
   -4.300179119721e-10 1.000000000000e+00 2.064000000000e+03 0.000000000000e+00
    2.400000000000e+00 0.000000000000e+00-1.024454832077e-08 2.900000000000e+01
    2.160000000000e+05 4.000000000000e+00
